{
  "type": "FeatureCollection",
  "features": [
    {
      "type": "Feature",
      "properties": {
        "norad_id": 66975,
        "name": "STARLINK-35777",
        "group": "last-30-days",
        "lat": 1.221030110208752,
        "lon": 113.56948720067167,
        "alt_km": 340.32904085861355,
        "timestamp": "2025-12-21T16:47:53.451971+00:00",
        "meta_object_name": "STARLINK-35777",
        "meta_object_id": "2025-288S",
        "meta_epoch": "2025-12-21T12:00:02.000160",
        "meta_mean_motion": 15.77012185,
        "meta_eccentricity": 0.0001536,
        "meta_inclination": 43.0009,
        "meta_ra_of_asc_node": 113.4749,
        "meta_arg_of_pericenter": 265.7403,
        "meta_mean_anomaly": 40.0668,
        "meta_ephemeris_type": 0,
        "meta_classification_type": "U",
        "meta_norad_cat_id": 66975,
        "meta_element_set_no": 999,
        "meta_rev_at_epoch": 323,
        "meta_bstar": -0.0094848,
        "meta_mean_motion_dot": -0.01410409,
        "meta_mean_motion_ddot": 0,
        "tle_line1": "1 66975U 25288S   25355.50002315 -.01410409  00000+0 -94848-2 0  9999",
        "tle_line2": "2 66975  43.0009 113.4749 0001536 265.7403  40.0668 15.77012185  3231"
      },
      "geometry": {
        "type": "Point",
        "coordinates": [
          113.56948720067167,
          1.221030110208752
        ]
      }
    },
    {
      "type": "Feature",
      "properties": {
        "norad_id": 66976,
        "name": "STARLINK-35772",
        "group": "last-30-days",
        "lat": 15.817944947680632,
        "lon": -84.9289465629003,
        "alt_km": 381.73473604548326,
        "timestamp": "2025-12-21T16:47:53.451983+00:00",
        "meta_object_name": "STARLINK-35772",
        "meta_object_id": "2025-288T",
        "meta_epoch": "2025-12-21T12:00:02.000160",
        "meta_mean_motion": 15.62512606,
        "meta_eccentricity": 0.0001259,
        "meta_inclination": 43.0005,
        "meta_ra_of_asc_node": 113.9603,
        "meta_arg_of_pericenter": 285.3313,
        "meta_mean_anomaly": 185.635,
        "meta_ephemeris_type": 0,
        "meta_classification_type": "U",
        "meta_norad_cat_id": 66976,
        "meta_element_set_no": 999,
        "meta_rev_at_epoch": 323,
        "meta_bstar": -0.031757,
        "meta_mean_motion_dot": -0.02527763,
        "meta_mean_motion_ddot": 0,
        "tle_line1": "1 66976U 25288T   25355.50002315 -.02527763  00000+0 -31757-1 0  9992",
        "tle_line2": "2 66976  43.0005 113.9603 0001259 285.3313 185.6350 15.62512606  3233"
      },
      "geometry": {
        "type": "Point",
        "coordinates": [
          -84.9289465629003,
          15.817944947680632
        ]
      }
    },
    {
      "type": "Feature",
      "properties": {
        "norad_id": 66977,
        "name": "STARLINK-35770",
        "group": "last-30-days",
        "lat": 2.6531933312350433,
        "lon": 115.1041764898236,
        "alt_km": 340.4288000052693,
        "timestamp": "2025-12-21T16:47:53.451993+00:00",
        "meta_object_name": "STARLINK-35770",
        "meta_object_id": "2025-288U",
        "meta_epoch": "2025-12-21T12:00:02.000160",
        "meta_mean_motion": 15.76921276,
        "meta_eccentricity": 0.000137,
        "meta_inclination": 43.0007,
        "meta_ra_of_asc_node": 113.4696,
        "meta_arg_of_pericenter": 269.6153,
        "meta_mean_anomaly": 38.3717,
        "meta_ephemeris_type": 0,
        "meta_classification_type": "U",
        "meta_norad_cat_id": 66977,
        "meta_element_set_no": 999,
        "meta_rev_at_epoch": 323,
        "meta_bstar": -0.0099768,
        "meta_mean_motion_dot": -0.0146948,
        "meta_mean_motion_ddot": 0,
        "tle_line1": "1 66977U 25288U   25355.50002315 -.01469480  00000+0 -99768-2 0  9990",
        "tle_line2": "2 66977  43.0007 113.4696 0001370 269.6153  38.3717 15.76921276  3237"
      },
      "geometry": {
        "type": "Point",
        "coordinates": [
          115.1041764898236,
          2.6531933312350433
        ]
      }
    },
    {
      "type": "Feature",
      "properties": {
        "norad_id": 66978,
        "name": "STARLINK-35787",
        "group": "last-30-days",
        "lat": 6.699480069800057,
        "lon": 119.48006167692849,
        "alt_km": 340.32381421026093,
        "timestamp": "2025-12-21T16:47:53.452005+00:00",
        "meta_object_name": "STARLINK-35787",
        "meta_object_id": "2025-288V",
        "meta_epoch": "2025-12-21T12:00:02.000160",
        "meta_mean_motion": 15.76789939,
        "meta_eccentricity": 0.0001433,
        "meta_inclination": 43.0008,
        "meta_ra_of_asc_node": 113.4541,
        "meta_arg_of_pericenter": 270.2578,
        "meta_mean_anomaly": 43.7795,
        "meta_ephemeris_type": 0,
        "meta_classification_type": "U",
        "meta_norad_cat_id": 66978,
        "meta_element_set_no": 999,
        "meta_rev_at_epoch": 323,
        "meta_bstar": -0.0099539,
        "meta_mean_motion_dot": -0.01458933,
        "meta_mean_motion_ddot": 0,
        "tle_line1": "1 66978U 25288V   25355.50002315 -.01458933  00000+0 -99539-2 0  9998",
        "tle_line2": "2 66978  43.0008 113.4541 0001433 270.2578  43.7795 15.76789939  3231"
      },
      "geometry": {
        "type": "Point",
        "coordinates": [
          119.48006167692849,
          6.699480069800057
        ]
      }
    },
    {
      "type": "Feature",
      "properties": {
        "norad_id": 66979,
        "name": "STARLINK-36107",
        "group": "last-30-days",
        "lat": 8.080919341923021,
        "lon": 120.99749739365853,
        "alt_km": 340.63686803683504,
        "timestamp": "2025-12-21T16:47:53.452019+00:00",
        "meta_object_name": "STARLINK-36107",
        "meta_object_id": "2025-288W",
        "meta_epoch": "2025-12-21T12:00:02.000160",
        "meta_mean_motion": 15.76680716,
        "meta_eccentricity": 0.0001324,
        "meta_inclination": 43.0009,
        "meta_ra_of_asc_node": 113.449,
        "meta_arg_of_pericenter": 265.0617,
        "meta_mean_anomaly": 51.1126,
        "meta_ephemeris_type": 0,
        "meta_classification_type": "U",
        "meta_norad_cat_id": 66979,
        "meta_element_set_no": 999,
        "meta_rev_at_epoch": 323,
        "meta_bstar": -0.010477,
        "meta_mean_motion_dot": -0.01519511,
        "meta_mean_motion_ddot": 0,
        "tle_line1": "1 66979U 25288W   25355.50002315 -.01519511  00000+0 -10477-1 0  9992",
        "tle_line2": "2 66979  43.0009 113.4490 0001324 265.0617  51.1126 15.76680716  3235"
      },
      "geometry": {
        "type": "Point",
        "coordinates": [
          120.99749739365853,
          8.080919341923021
        ]
      }
    },
    {
      "type": "Feature",
      "properties": {
        "norad_id": 66980,
        "name": "STARLINK-36086",
        "group": "last-30-days",
        "lat": 9.418625215834297,
        "lon": 122.4819685993792,
        "alt_km": 340.7443107267127,
        "timestamp": "2025-12-21T16:47:53.452029+00:00",
        "meta_object_name": "STARLINK-36086",
        "meta_object_id": "2025-288X",
        "meta_epoch": "2025-12-21T12:00:02.000160",
        "meta_mean_motion": 15.76611873,
        "meta_eccentricity": 0.0001397,
        "meta_inclination": 43.0008,
        "meta_ra_of_asc_node": 113.4432,
        "meta_arg_of_pericenter": 262.3348,
        "meta_mean_anomaly": 55.8786,
        "meta_ephemeris_type": 0,
        "meta_classification_type": "U",
        "meta_norad_cat_id": 66980,
        "meta_element_set_no": 999,
        "meta_rev_at_epoch": 323,
        "meta_bstar": -0.010555,
        "meta_mean_motion_dot": -0.01525277,
        "meta_mean_motion_ddot": 0,
        "tle_line1": "1 66980U 25288X   25355.50002315 -.01525277  00000+0 -10555-1 0  9997",
        "tle_line2": "2 66980  43.0008 113.4432 0001397 262.3348  55.8786 15.76611873  3234"
      },
      "geometry": {
        "type": "Point",
        "coordinates": [
          122.4819685993792,
          9.418625215834297
        ]
      }
    },
    {
      "type": "Feature",
      "properties": {
        "norad_id": 66981,
        "name": "STARLINK-36142",
        "group": "last-30-days",
        "lat": 10.734908015988754,
        "lon": 123.96166349705386,
        "alt_km": 340.67492795060843,
        "timestamp": "2025-12-21T16:47:53.452041+00:00",
        "meta_object_name": "STARLINK-36142",
        "meta_object_id": "2025-288Y",
        "meta_epoch": "2025-12-21T12:00:02.000160",
        "meta_mean_motion": 15.76571763,
        "meta_eccentricity": 0.0001793,
        "meta_inclination": 43.0008,
        "meta_ra_of_asc_node": 113.4383,
        "meta_arg_of_pericenter": 269.6084,
        "meta_mean_anomaly": 50.6004,
        "meta_ephemeris_type": 0,
        "meta_classification_type": "U",
        "meta_norad_cat_id": 66981,
        "meta_element_set_no": 999,
        "meta_rev_at_epoch": 323,
        "meta_bstar": -0.010811,
        "meta_mean_motion_dot": -0.01555501,
        "meta_mean_motion_ddot": 0,
        "tle_line1": "1 66981U 25288Y   25355.50002315 -.01555501  00000+0 -10811-1 0  9996",
        "tle_line2": "2 66981  43.0008 113.4383 0001793 269.6084  50.6004 15.76571763  3236"
      },
      "geometry": {
        "type": "Point",
        "coordinates": [
          123.96166349705386,
          10.734908015988754
        ]
      }
    }
  ]
}